CENTISPACE-1 OBJECT C   
1 68352U 26060C   26095.73164918  .00000086  00000+0  43653-4 0  9997
2 68352  54.9852 331.2905 0012134 338.2549  21.7934 14.74891649  2086
CENTISPACE-1 OBJECT D   
1 68353U 26060D   26095.73166100  .00000086  00000+0  43679-4 0  9991
2 68353  54.9822 331.2869 0012407 338.9865  21.0623 14.74881966  2083
CENTISPACE-1 OBJECT E   
1 68354U 26060E   26096.40862123  .00000057  00000+0  39396-4 0  9994
2 68354  54.9777 328.5107 0012841 340.1409  19.9089 14.74860184  2180
CENTISPACE-1 OBJECT F   
1 68355U 26060F   26095.79860700  .00000084  00000+0  43343-4 0  9992
2 68355  54.9777 330.9993 0012870 336.1698  23.8704 14.74955235  2098
CENTISPACE-1 OBJECT G   
1 68356U 26060G   26096.88178341  .00000061  00000+0  39760-4 0  9990
2 68356  54.9907 326.5853 0013520 338.9161  21.1279 14.75165457  2254
CENTISPACE-1 OBJECT H   
1 68357U 26060H   26092.40903992  .00000123  00000+0  48805-4 0  9992
2 68357  54.9838 344.8287 0013821 328.1926  31.8237 14.75277593  1599
CENTISPACE-1 OBJECT J   
1 68358U 26060J   26096.60983417  .00000053  00000+0  38690-4 0  9992
2 68358  54.9827 327.6860 0014975 340.2535  19.7883 14.75158345  2211
CENTISPACE-1 OBJECT K   
1 68359U 26060K   26094.16969185  .00000130  00000+0  49717-4 0  9996
2 68359  54.9784 337.6182 0015038 331.1576  28.8591 14.75501463  1856
RASSVET-3 1             
1 68360U 26061A   26098.27278532  .00103451  26149-5  33759-3 0  9990
2 68360  82.2953  91.0780 0023915  18.7834 341.4315 15.90031625  2476
RASSVET-3 2             
1 68361U 26061B   26098.27719696  .00061689  19600-6  20469-3 0  9997
2 68361  82.2972  91.0870 0025195  16.7571 343.4527 15.89603399  2474
RASSVET-3 3             
1 68362U 26061C   26098.27704328  .00059506  10465-6  19751-3 0  9991
2 68362  82.2972  91.0865 0025052  16.6182 343.5905 15.89598573  2476
RASSVET-3 4             
1 68363U 26061D   26098.27684865  .00062620  23635-6  20771-3 0  9993
2 68363  82.2972  91.0865 0025046  16.4677 343.7402 15.89617721  2478
RASSVET-3 5             
1 68364U 26061E   26098.27666321  .00060928  16430-6  20187-3 0  9996
2 68364  82.2972  91.0858 0025037  16.5240 343.6842 15.89637150  2473
RASSVET-3 6             
1 68365U 26061F   26098.27585871  .00069040  53291-6  22646-3 0  9999
2 68365  82.2972  91.0846 0024691  16.7549 343.4532 15.89863810  2478
RASSVET-3 7             
1 68366U 26061G   26098.27636775  .00060017  12660-6  19865-3 0  9999
2 68366  82.2973  91.0858 0024758  16.5717 343.6358 15.89668140  2479
RASSVET-3 8             
1 68367U 26061H   26098.27649911  .00060509  14699-6  20041-3 0  9994
2 68367  82.2972  91.0854 0024799  16.4150 343.7918 15.89653777  2473
