[{"OBJECT_NAME":"CENTISPACE-1 OBJECT C","OBJECT_ID":"2026-060C","EPOCH":"2026-04-05T17:33:34.489152","MEAN_MOTION":14.74891649,"ECCENTRICITY":0.00121348,"INCLINATION":54.9852,"RA_OF_ASC_NODE":331.2905,"ARG_OF_PERICENTER":338.2549,"MEAN_ANOMALY":21.7934,"EPHEMERIS_TYPE":0,"CLASSIFICATION_TYPE":"U","NORAD_CAT_ID":68352,"ELEMENT_SET_NO":999,"REV_AT_EPOCH":208,"BSTAR":4.3653263e-5,"MEAN_MOTION_DOT":8.6e-7,"MEAN_MOTION_DDOT":0},{"OBJECT_NAME":"CENTISPACE-1 OBJECT D","OBJECT_ID":"2026-060D","EPOCH":"2026-04-05T17:33:35.510400","MEAN_MOTION":14.74881966,"ECCENTRICITY":0.00124072,"INCLINATION":54.9822,"RA_OF_ASC_NODE":331.2869,"ARG_OF_PERICENTER":338.9865,"MEAN_ANOMALY":21.0623,"EPHEMERIS_TYPE":0,"CLASSIFICATION_TYPE":"U","NORAD_CAT_ID":68353,"ELEMENT_SET_NO":999,"REV_AT_EPOCH":208,"BSTAR":4.367931e-5,"MEAN_MOTION_DOT":8.6e-7,"MEAN_MOTION_DDOT":0},{"OBJECT_NAME":"CENTISPACE-1 OBJECT E","OBJECT_ID":"2026-060E","EPOCH":"2026-04-06T09:48:24.874272","MEAN_MOTION":14.74860184,"ECCENTRICITY":0.00128411,"INCLINATION":54.9777,"RA_OF_ASC_NODE":328.5107,"ARG_OF_PERICENTER":340.1409,"MEAN_ANOMALY":19.9089,"EPHEMERIS_TYPE":0,"CLASSIFICATION_TYPE":"U","NORAD_CAT_ID":68354,"ELEMENT_SET_NO":999,"REV_AT_EPOCH":218,"BSTAR":3.9395794e-5,"MEAN_MOTION_DOT":5.7e-7,"MEAN_MOTION_DDOT":0},{"OBJECT_NAME":"CENTISPACE-1 OBJECT F","OBJECT_ID":"2026-060F","EPOCH":"2026-04-05T19:09:59.644800","MEAN_MOTION":14.74955235,"ECCENTRICITY":0.00128704,"INCLINATION":54.9777,"RA_OF_ASC_NODE":330.9993,"ARG_OF_PERICENTER":336.1698,"MEAN_ANOMALY":23.8704,"EPHEMERIS_TYPE":0,"CLASSIFICATION_TYPE":"U","NORAD_CAT_ID":68355,"ELEMENT_SET_NO":999,"REV_AT_EPOCH":209,"BSTAR":4.3343164e-5,"MEAN_MOTION_DOT":8.4e-7,"MEAN_MOTION_DDOT":0},{"OBJECT_NAME":"CENTISPACE-1 OBJECT G","OBJECT_ID":"2026-060G","EPOCH":"2026-04-06T21:09:46.086624","MEAN_MOTION":14.75165457,"ECCENTRICITY":0.00135205,"INCLINATION":54.9907,"RA_OF_ASC_NODE":326.5853,"ARG_OF_PERICENTER":338.9161,"MEAN_ANOMALY":21.1279,"EPHEMERIS_TYPE":0,"CLASSIFICATION_TYPE":"U","NORAD_CAT_ID":68356,"ELEMENT_SET_NO":999,"REV_AT_EPOCH":225,"BSTAR":3.9760246e-5,"MEAN_MOTION_DOT":6.1e-7,"MEAN_MOTION_DDOT":0},{"OBJECT_NAME":"CENTISPACE-1 OBJECT H","OBJECT_ID":"2026-060H","EPOCH":"2026-04-02T09:49:01.049088","MEAN_MOTION":14.75277593,"ECCENTRICITY":0.00138214,"INCLINATION":54.9838,"RA_OF_ASC_NODE":344.8287,"ARG_OF_PERICENTER":328.1926,"MEAN_ANOMALY":31.8237,"EPHEMERIS_TYPE":0,"CLASSIFICATION_TYPE":"U","NORAD_CAT_ID":68357,"ELEMENT_SET_NO":999,"REV_AT_EPOCH":159,"BSTAR":4.8805088e-5,"MEAN_MOTION_DOT":1.23e-6,"MEAN_MOTION_DDOT":0},{"OBJECT_NAME":"CENTISPACE-1 OBJECT J","OBJECT_ID":"2026-060J","EPOCH":"2026-04-06T14:38:09.672288","MEAN_MOTION":14.75158345,"ECCENTRICITY":0.00149753,"INCLINATION":54.9827,"RA_OF_ASC_NODE":327.686,"ARG_OF_PERICENTER":340.2535,"MEAN_ANOMALY":19.7883,"EPHEMERIS_TYPE":0,"CLASSIFICATION_TYPE":"U","NORAD_CAT_ID":68358,"ELEMENT_SET_NO":999,"REV_AT_EPOCH":221,"BSTAR":3.8690224e-5,"MEAN_MOTION_DOT":5.3e-7,"MEAN_MOTION_DDOT":0},{"OBJECT_NAME":"CENTISPACE-1 OBJECT K","OBJECT_ID":"2026-060K","EPOCH":"2026-04-04T04:04:21.375840","MEAN_MOTION":14.75501463,"ECCENTRICITY":0.00150386,"INCLINATION":54.9784,"RA_OF_ASC_NODE":337.6182,"ARG_OF_PERICENTER":331.1576,"MEAN_ANOMALY":28.8591,"EPHEMERIS_TYPE":0,"CLASSIFICATION_TYPE":"U","NORAD_CAT_ID":68359,"ELEMENT_SET_NO":999,"REV_AT_EPOCH":185,"BSTAR":4.9717379e-5,"MEAN_MOTION_DOT":1.3e-6,"MEAN_MOTION_DDOT":0},{"OBJECT_NAME":"RASSVET-3 1","OBJECT_ID":"2026-061A","EPOCH":"2026-04-08T06:32:48.651648","MEAN_MOTION":15.90031625,"ECCENTRICITY":0.00239158,"INCLINATION":82.2953,"RA_OF_ASC_NODE":91.078,"ARG_OF_PERICENTER":18.7834,"MEAN_ANOMALY":341.4315,"EPHEMERIS_TYPE":0,"CLASSIFICATION_TYPE":"U","NORAD_CAT_ID":68360,"ELEMENT_SET_NO":999,"REV_AT_EPOCH":247,"BSTAR":0.00033759184,"MEAN_MOTION_DOT":0.00103451,"MEAN_MOTION_DDOT":2.614923e-6},{"OBJECT_NAME":"RASSVET-3 2","OBJECT_ID":"2026-061B","EPOCH":"2026-04-08T06:39:09.817344","MEAN_MOTION":15.89603399,"ECCENTRICITY":0.00251952,"INCLINATION":82.2972,"RA_OF_ASC_NODE":91.087,"ARG_OF_PERICENTER":16.7571,"MEAN_ANOMALY":343.4527,"EPHEMERIS_TYPE":0,"CLASSIFICATION_TYPE":"U","NORAD_CAT_ID":68361,"ELEMENT_SET_NO":999,"REV_AT_EPOCH":247,"BSTAR":0.0002046863,"MEAN_MOTION_DOT":0.00061689,"MEAN_MOTION_DDOT":1.96004e-7},{"OBJECT_NAME":"RASSVET-3 3","OBJECT_ID":"2026-061C","EPOCH":"2026-04-08T06:38:56.539392","MEAN_MOTION":15.89598573,"ECCENTRICITY":0.00250525,"INCLINATION":82.2972,"RA_OF_ASC_NODE":91.0865,"ARG_OF_PERICENTER":16.6182,"MEAN_ANOMALY":343.5905,"EPHEMERIS_TYPE":0,"CLASSIFICATION_TYPE":"U","NORAD_CAT_ID":68362,"ELEMENT_SET_NO":999,"REV_AT_EPOCH":247,"BSTAR":0.0001975137,"MEAN_MOTION_DOT":0.00059506,"MEAN_MOTION_DDOT":1.04652e-7},{"OBJECT_NAME":"RASSVET-3 4","OBJECT_ID":"2026-061D","EPOCH":"2026-04-08T06:38:39.723360","MEAN_MOTION":15.89617721,"ECCENTRICITY":0.00250466,"INCLINATION":82.2972,"RA_OF_ASC_NODE":91.0865,"ARG_OF_PERICENTER":16.4677,"MEAN_ANOMALY":343.7402,"EPHEMERIS_TYPE":0,"CLASSIFICATION_TYPE":"U","NORAD_CAT_ID":68363,"ELEMENT_SET_NO":999,"REV_AT_EPOCH":247,"BSTAR":0.00020771329,"MEAN_MOTION_DOT":0.0006262,"MEAN_MOTION_DDOT":2.36349e-7},{"OBJECT_NAME":"RASSVET-3 5","OBJECT_ID":"2026-061E","EPOCH":"2026-04-08T06:38:23.701344","MEAN_MOTION":15.8963715,"ECCENTRICITY":0.00250379,"INCLINATION":82.2972,"RA_OF_ASC_NODE":91.0858,"ARG_OF_PERICENTER":16.524,"MEAN_ANOMALY":343.6842,"EPHEMERIS_TYPE":0,"CLASSIFICATION_TYPE":"U","NORAD_CAT_ID":68364,"ELEMENT_SET_NO":999,"REV_AT_EPOCH":247,"BSTAR":0.00020187331,"MEAN_MOTION_DOT":0.00060928,"MEAN_MOTION_DDOT":1.64301e-7},{"OBJECT_NAME":"RASSVET-3 6","OBJECT_ID":"2026-061F","EPOCH":"2026-04-08T06:37:14.192544","MEAN_MOTION":15.8986381,"ECCENTRICITY":0.00246917,"INCLINATION":82.2972,"RA_OF_ASC_NODE":91.0846,"ARG_OF_PERICENTER":16.7549,"MEAN_ANOMALY":343.4532,"EPHEMERIS_TYPE":0,"CLASSIFICATION_TYPE":"U","NORAD_CAT_ID":68365,"ELEMENT_SET_NO":999,"REV_AT_EPOCH":247,"BSTAR":0.00022645955,"MEAN_MOTION_DOT":0.0006904,"MEAN_MOTION_DDOT":5.32911e-7},{"OBJECT_NAME":"RASSVET-3 7","OBJECT_ID":"2026-061G","EPOCH":"2026-04-08T06:37:58.173600","MEAN_MOTION":15.8966814,"ECCENTRICITY":0.00247587,"INCLINATION":82.2973,"RA_OF_ASC_NODE":91.0858,"ARG_OF_PERICENTER":16.5717,"MEAN_ANOMALY":343.6358,"EPHEMERIS_TYPE":0,"CLASSIFICATION_TYPE":"U","NORAD_CAT_ID":68366,"ELEMENT_SET_NO":999,"REV_AT_EPOCH":247,"BSTAR":0.00019864584,"MEAN_MOTION_DOT":0.00060017,"MEAN_MOTION_DDOT":1.26604e-7},{"OBJECT_NAME":"RASSVET-3 8","OBJECT_ID":"2026-061H","EPOCH":"2026-04-08T06:38:09.523104","MEAN_MOTION":15.89653777,"ECCENTRICITY":0.0024799,"INCLINATION":82.2972,"RA_OF_ASC_NODE":91.0854,"ARG_OF_PERICENTER":16.415,"MEAN_ANOMALY":343.7918,"EPHEMERIS_TYPE":0,"CLASSIFICATION_TYPE":"U","NORAD_CAT_ID":68367,"ELEMENT_SET_NO":999,"REV_AT_EPOCH":247,"BSTAR":0.00020041227,"MEAN_MOTION_DOT":0.00060509,"MEAN_MOTION_DDOT":1.46993e-7}]
